NORAD_CAT_ID,OBJECT_NAME,OBJECT_TYPE,EPOCH,MEAN_MOTION,ECCENTRICITY,INCLINATION,RA_OF_ASC_NODE,ARG_OF_PERICENTER,MEAN_ANOMALY,BSTAR,MEAN_MOTION_DOT,MEAN_MOTION_DDOT,TLE_LINE0,TLE_LINE1,TLE_LINE2,SEMIMAJOR_AXIS,PERIOD,APOGEE,PERIGEE,DECAYED
49413.0,STARLINK-3157,PAYLOAD,2023-05-02 22:51:37,15.0883816,5.86e-05,53.2169,215.6672,97.5624,262.5435,-0.00027553,-4.67e-05,0.0,0 STARLINK-3157,1 49413U 21104F   23122.95251531 -.00004670  00000-0 -27553-3 0  9994,2 49413  53.2169 215.6672 0000586  97.5624 262.5435 15.08838160 82591,6917.886,95.438,540.156,539.346,0.0
49413.0,STARLINK-3157,PAYLOAD,2023-05-03 13:10:05,15.08843822,7.32e-05,53.2173,212.9903,79.9552,280.1522,0.00026183,3.882e-05,0.0,0 STARLINK-3157,1 49413U 21104F   23123.54867573  .00003882  00000-0  26183-3 0  9999,2 49413  53.2173 212.9903 0000732  79.9552 280.1522 15.08843822 81593,6917.869,95.437,540.24,539.227,0.0
49413.0,STARLINK-3157,PAYLOAD,2023-05-03 16:20:51,15.0884866,7.01e-05,53.2172,212.3962,85.4021,274.7051,0.00049564,7.611e-05,0.0,0 STARLINK-3157,1 49413U 21104F   23123.68115491  .00007611  00000-0  49564-3 0  9991,2 49413  53.2172 212.3962 0000701  85.4021 274.7051 15.08848660 82705,6917.854,95.437,540.204,539.234,0.0
49413.0,STARLINK-3157,PAYLOAD,2023-05-03 22:42:24,15.08838319,8.28e-05,53.2174,211.2053,78.0585,282.05,0.00018482,2.655e-05,0.0,0 STARLINK-3157,1 49413U 21104F   23123.94611747  .00002655  00000-0  18482-3 0  9993,2 49413  53.2174 211.2053 0000828  78.0585 282.0500 15.08838319 82744,6917.886,95.438,540.323,539.178,0.0
49413.0,STARLINK-3157,PAYLOAD,2023-05-04 13:00:52,15.08844277,7.43e-05,53.2168,208.5307,78.6908,281.4167,0.00035654,5.392e-05,0.0,0 STARLINK-3157,1 49413U 21104F   23124.54227737  .00005392  00000-0  35654-3 0  9993,2 49413  53.2168 208.5307 0000743  78.6908 281.4167 15.08844277 81740,6917.867,95.437,540.246,539.218,0.0
49413.0,STARLINK-3157,PAYLOAD,2023-05-04 17:47:01,15.08852197,8.1e-05,53.2171,207.637,77.9082,282.2001,0.00053605,8.257e-05,0.0,0 STARLINK-3157,1 49413U 21104F   23124.74099471  .00008257  00000-0  53605-3 0  9996,2 49413  53.2171 207.6370 0000810  77.9082 282.2001 15.08852197 81773,6917.843,95.437,540.268,539.148,0.0
49413.0,STARLINK-3157,PAYLOAD,2023-05-05 04:54:44,15.08832266,0.000101,53.2165,205.5642,2.5715,357.5282,-2.7438e-05,-7.24e-06,0.0,0 STARLINK-3157,1 49413U 21104F   23125.20468012 -.00000724  00000-0 -27438-4 0  9998,2 49413  53.2165 205.5642 0001010   2.5715 357.5282 15.08832266 82936,6917.904,95.438,540.468,539.07,0.0
49413.0,STARLINK-3157,PAYLOAD,2023-05-05 12:51:39,15.08843729,7.67e-05,53.2149,204.0719,78.3466,281.7612,0.00025161,3.719e-05,0.0,0 STARLINK-3157,1 49413U 21104F   23125.53587740  .00003719  00000-0  25161-3 0  9999,2 49413  53.2149 204.0719 0000767  78.3466 281.7612 15.08843729 82985,6917.869,95.437,540.265,539.203,0.0
49413.0,STARLINK-3157,PAYLOAD,2023-05-05 14:27:02,15.08846154,7.95e-05,53.2151,203.7755,70.2482,289.8595,0.00032159,4.835e-05,0.0,0 STARLINK-3157,1 49413U 21104F   23125.60211706  .00004835  00000-0  32159-3 0  9998,2 49413  53.2151 203.7755 0000795  70.2482 289.8595 15.08846154 81909,6917.862,95.437,540.277,539.177,0.0
49413.0,STARLINK-3157,PAYLOAD,2023-05-05 22:23:58,15.08839132,9.27e-05,53.2148,202.2902,57.7546,302.3536,0.00015552,2.188e-05,0.0,0 STARLINK-3157,1 49413U 21104F   23125.93332025  .00002188  00000-0  15552-3 0  9999,2 49413  53.2148 202.2902 0000927  57.7546 302.3536 15.08839132 83042,6917.883,95.438,540.389,539.107,0.0
49413.0,STARLINK-3157,PAYLOAD,2023-05-06 11:07:04,15.08840276,9.12e-05,53.2147,199.9111,52.5637,307.5438,0.00017601,2.515e-05,0.0,0 STARLINK-3157,1 49413U 21104F   23126.46324245  .00002515  00000-0  17601-3 0  9994,2 49413  53.2147 199.9111 0000912  52.5637 307.5438 15.08840276 82030,6917.88,95.438,540.375,539.114,0.0
49413.0,STARLINK-3157,PAYLOAD,2023-05-07 04:36:18,15.08844678,0.0001191,53.2145,196.6409,50.8795,309.2303,0.000293,4.379e-05,0.0,0 STARLINK-3157,1 49413U 21104F   23127.19188286  .00004379  00000-0  29300-3 0  9997,2 49413  53.2145 196.6409 0001191  50.8795 309.2303 15.08844678 83231,6917.866,95.437,540.555,538.907,0.0
49413.0,STARLINK-3157,PAYLOAD,2023-05-07 10:57:51,15.08842302,0.0001088,53.2149,195.4502,57.7723,302.3374,0.00019788,2.863e-05,0.0,0 STARLINK-3157,1 49413U 21104F   23127.45684339  .00002863  00000-0  19788-3 0  9991,2 49413  53.2149 195.4502 0001088  57.7723 302.3374 15.08842302 82185,6917.873,95.437,540.491,538.986,0.0
49413.0,STARLINK-3157,PAYLOAD,2023-05-07 22:05:33,15.08842152,0.0001119,53.2147,193.3689,58.1926,301.9175,0.00027352,4.068e-05,0.0,0 STARLINK-3157,1 49413U 21104F   23127.92052448  .00004068  00000-0  27352-3 0  9998,2 49413  53.2147 193.3689 0001119  58.1926 301.9175 15.08842152 82256,6917.874,95.437,540.513,538.965,0.0
49413.0,STARLINK-3157,PAYLOAD,2023-05-08 13:59:24,15.08842345,0.0001031,53.2163,190.3935,76.5463,283.5644,0.00014261,1.983e-05,0.0,0 STARLINK-3157,1 49413U 21104F   23128.58292386  .00001983  00000-0  14261-3 0  9996,2 49413  53.2163 190.3935 0001031  76.5463 283.5644 15.08842345 82359,6917.873,95.437,540.451,539.025,0.0
49413.0,STARLINK-3157,PAYLOAD,2023-05-09 10:39:25,15.08842243,0.0001057,53.2172,186.529,77.3693,282.7417,9.4418e-05,1.215e-05,0.0,0 STARLINK-3157,1 49413U 21104F   23129.44404212  .00001215  00000-0  94418-4 0  9996,2 49413  53.2172 186.5290 0001057  77.3693 282.7417 15.08842243 82482,6917.874,95.437,540.47,539.007,0.0
49413.0,STARLINK-3157,PAYLOAD,2023-05-10 12:05:35,15.0884319,9.75e-05,53.2154,181.7703,77.107,283.0031,8.9805e-05,1.142e-05,0.0,0 STARLINK-3157,1 49413U 21104F   23130.50388355  .00001142  00000-0  89805-4 0  9997,2 49413  53.2154 181.7703 0000975  77.1070 283.0031 15.08843190 82649,6917.871,95.437,540.41,539.061,0.0
49413.0,STARLINK-3157,PAYLOAD,2023-05-10 20:02:31,15.08840473,0.0001,53.2154,180.2831,76.3532,283.7572,5.4423e-05,5.78e-06,0.0,0 STARLINK-3157,1 49413U 21104F   23130.83508498  .00000578  00000-0  54423-4 0  9995,2 49413  53.2154 180.2831 0001000  76.3532 283.7572 15.08840473 82692,6917.879,95.438,540.436,539.052,0.0
49413.0,STARLINK-3157,PAYLOAD,2023-05-11 10:20:59,15.08843018,0.000101,53.2154,177.607,85.388,274.7227,5.7168e-05,6.22e-06,0.0,0 STARLINK-3157,1 49413U 21104F   23131.43124395  .00000622  00000-0  57168-4 0  9991,2 49413  53.2154 177.6070 0001010  85.3880 274.7227 15.08843018 82789,6917.871,95.437,540.435,539.037,0.0
49413.0,STARLINK-3157,PAYLOAD,2023-05-11 19:53:18,15.08835409,0.0001003,53.2154,175.8227,91.9882,268.1225,0.00013711,1.895e-05,0.0,0 STARLINK-3157,1 49413U 21104F   23131.82868844  .00001895  00000-0  13711-3 0  9996,2 49413  53.2154 175.8227 0001003  91.9882 268.1225 15.08835409 83938,6917.894,95.438,540.453,539.066,0.0
49413.0,STARLINK-3157,PAYLOAD,2023-05-11 23:04:05,15.08834726,0.0001055,53.2154,175.2283,87.0603,273.051,7.0197e-05,8.29e-06,0.0,0 STARLINK-3157,1 49413U 21104F   23131.96116911  .00000829  00000-0  70197-4 0  9990,2 49413  53.2154 175.2283 0001055  87.0603 273.0510 15.08834726 82862,6917.897,95.438,540.491,539.032,0.0
49413.0,STARLINK-3157,PAYLOAD,2023-05-12 08:36:23,15.08834954,0.0001073,53.2154,173.4441,90.5731,269.5384,8.0974e-06,-1.59e-06,0.0,0 STARLINK-3157,1 49413U 21104F   23132.35861006 -.00000159  00000-0  80974-5 0  9998,2 49413  53.2154 173.4441 0001073  90.5731 269.5384 15.08834954 82928,6917.896,95.438,540.503,539.019,0.0
49413.0,STARLINK-3157,PAYLOAD,2023-05-13 05:16:24,15.08845244,0.0001065,53.2162,169.5786,93.1008,267.0106,0.00012871,1.761e-05,0.0,0 STARLINK-3157,1 49413U 21104F   23133.21972596  .00001761  00000-0  12871-3 0  9999,2 49413  53.2162 169.5786 0001065  93.1008 267.0106 15.08845244 84147,6917.864,95.437,540.466,538.993,0.0
49413.0,STARLINK-3157,PAYLOAD,2023-05-13 11:37:56,15.08847103,0.0001073,53.2155,168.3896,91.0361,269.0754,0.00018307,2.627e-05,0.0,0 STARLINK-3157,1 49413U 21104F   23133.48468458  .00002627  00000-0  18307-3 0  9997,2 49413  53.2155 168.3896 0001073  91.0361 269.0754 15.08847103 83096,6917.859,95.437,540.466,538.981,0.0
49413.0,STARLINK-3157,PAYLOAD,2023-05-13 19:34:52,15.08840076,0.0001104,53.2151,166.9015,79.6464,280.4652,7.8913e-05,9.68e-06,0.0,0 STARLINK-3157,1 49413U 21104F   23133.81588841  .00000968  00000-0  78913-4 0  9999,2 49413  53.2151 166.9015 0001104  79.6464 280.4652 15.08840076 84233,6917.88,95.438,540.509,538.981,0.0
49413.0,STARLINK-3157,PAYLOAD,2023-05-14 11:28:44,15.0883895,0.0001122,53.2158,163.9281,82.1256,277.9864,7.8389e-05,9.6e-06,0.0,0 STARLINK-3157,1 49413U 21104F   23134.47829174  .00000960  00000-0  78389-4 0  9998,2 49413  53.2158 163.9281 0001122  82.1256 277.9864 15.08838950 83244,6917.884,95.438,540.525,538.972,0.0
49413.0,STARLINK-3157,PAYLOAD,2023-05-14 19:25:40,15.08839581,0.0001149,53.2157,162.4416,80.0905,280.0217,5.3872e-05,5.7e-06,0.0,0 STARLINK-3157,1 49413U 21104F   23134.80949183  .00000570  00000-0  53872-4 0  9995,2 49413  53.2157 162.4416 0001149  80.0905 280.0217 15.08839581 83297,6917.882,95.438,540.542,538.952,0.0
49413.0,STARLINK-3157,PAYLOAD,2023-05-15 04:57:58,15.08841855,0.0001153,53.2155,160.6571,80.9845,279.1277,2.2545e-05,7.1e-07,0.0,0 STARLINK-3157,1 49413U 21104F   23135.20693090  .00000071  00000-0  22545-4 0  9992,2 49413  53.2155 160.6571 0001153  80.9845 279.1277 15.08841855 84444,6917.875,95.437,540.537,538.942,0.0
49413.0,STARLINK-3157,PAYLOAD,2023-05-15 11:19:31,15.08844167,0.0001116,53.2156,159.4667,85.4847,274.6273,3.357e-05,2.47e-06,0.0,0 STARLINK-3157,1 49413U 21104F   23135.47188780  .00000247  00000-0  33570-4 0  9991,2 49413  53.2156 159.4667 0001116  85.4847 274.6273 15.08844167 83396,6917.868,95.437,540.505,538.961,0.0
49413.0,STARLINK-3157,PAYLOAD,2023-05-16 06:24:09,15.08837167,0.0001113,53.2156,155.8974,87.9738,272.1382,7.7517e-05,9.46e-06,0.0,0 STARLINK-3157,1 49413U 21104F   23136.26677169  .00000946  00000-0  77517-4 0  9998,2 49413  53.2156 155.8974 0001113  87.9738 272.1382 15.08837167 84601,6917.889,95.438,540.524,538.984,0.0
